[{"OBJECT_NAME":"STARLINK-30498","OBJECT_ID":"2023-151H","EPOCH":"2026-03-09T22:00:01.999584","MEAN_MOTION":15.27563001,"ECCENTRICITY":0.00018388,"INCLINATION":43.0024,"RA_OF_ASC_NODE":334.6781,"ARG_OF_PERICENTER":252.4444,"MEAN_ANOMALY":31.6341,"EPHEMERIS_TYPE":0,"CLASSIFICATION_TYPE":"U","NORAD_CAT_ID":57971,"ELEMENT_SET_NO":999,"REV_AT_EPOCH":578,"BSTAR":0.00046944819,"MEAN_MOTION_DOT":0.00012672,"MEAN_MOTION_DDOT":0},{"OBJECT_NAME":"OBJECT H","OBJECT_ID":"2024-205H","EPOCH":"2026-03-09T23:10:36.271776","MEAN_MOTION":15.29110994,"ECCENTRICITY":0.00105089,"INCLINATION":97.4168,"RA_OF_ASC_NODE":147.1265,"ARG_OF_PERICENTER":38.7838,"MEAN_ANOMALY":321.4154,"EPHEMERIS_TYPE":0,"CLASSIFICATION_TYPE":"U","NORAD_CAT_ID":61901,"ELEMENT_SET_NO":999,"REV_AT_EPOCH":7354,"BSTAR":0.00059497566,"MEAN_MOTION_DOT":0.00016783,"MEAN_MOTION_DDOT":0}]
